ONEWEB-0424             
1 50497U 21132AE  23059.50989767  .00000070  00000+0  14518-3 0  9992
2 50497  87.9221 214.8165 0001769 117.4148 242.7164 13.18688273 62878
ONEWEB-0424             
1 50497U 21132AE  23059.50989767  .00000070  00000+0  14518-3 0  9992
2 50497  87.9221 214.8165 0001769 117.4148 242.7164 13.18688273 64151
ONEWEB-0424             
1 50497U 21132AE  23059.88928017  .00000017  00000+0  97374-5 0  9998
2 50497  87.9220 214.7413 0001795 117.4041 242.7274 13.18687715 62921
ONEWEB-0424             
1 50497U 21132AE  23060.72391976  .00000139  00000+0  31960-3 0  9993
2 50497  87.9220 214.5759 0001842 117.2045 242.9275 13.18688117 64312
ONEWEB-0424             
1 50497U 21132AE  23060.87567355  .00000002  00000+0 -27142-4 0  9993
2 50497  87.9219 214.5458 0001839 117.1606 242.9714 13.18687307 63052
ONEWEB-0424             
1 50497U 21132AE  23061.78618900  .00000078  00000+0  16428-3 0  9993
2 50497  87.9224 214.3653 0001795 116.3299 243.8017 13.18688720 63172
ONEWEB-0424             
1 50497U 21132AE  23062.39320087  .00000073  00000+0  15283-3 0  9990
2 50497  87.9225 214.2451 0001796 116.3798 243.7518 13.18688061 63255
ONEWEB-0424             
1 50497U 21132AE  23062.39320087  .00000073  00000+0  15283-3 0  9990
2 50497  87.9225 214.2451 0001796 116.3798 243.7518 13.18688061 64537
ONEWEB-0424             
1 50497U 21132AE  23062.84845936 -.00000010  00000+0 -57575-4 0  9999
2 50497  87.9226 214.1549 0001789 116.8567 243.2748 13.18688149 63318
